[{"OBJECT_NAME":"CENTISPACE-1 S9","OBJECT_ID":"2025-007D","EPOCH":"2026-03-09T22:07:56.074656","MEAN_MOTION":13.83191394,"ECCENTRICITY":0.00092392,"INCLINATION":54.9818,"RA_OF_ASC_NODE":279.4927,"ARG_OF_PERICENTER":251.979,"MEAN_ANOMALY":108.0161,"EPHEMERIS_TYPE":0,"CLASSIFICATION_TYPE":"U","NORAD_CAT_ID":62578,"ELEMENT_SET_NO":999,"REV_AT_EPOCH":6100,"BSTAR":0.00010536643,"MEAN_MOTION_DOT":-2.5e-7,"MEAN_MOTION_DDOT":0},{"OBJECT_NAME":"COSMOS 1275","OBJECT_ID":"1981-053A","EPOCH":"2026-03-09T19:30:19.998144","MEAN_MOTION":13.74525815,"ECCENTRICITY":0.00410356,"INCLINATION":82.9646,"RA_OF_ASC_NODE":338.8442,"ARG_OF_PERICENTER":95.7763,"MEAN_ANOMALY":264.8073,"EPHEMERIS_TYPE":0,"CLASSIFICATION_TYPE":"U","NORAD_CAT_ID":12504,"ELEMENT_SET_NO":999,"REV_AT_EPOCH":24562,"BSTAR":5.7243573e-5,"MEAN_MOTION_DOT":7.0e-7,"MEAN_MOTION_DDOT":0}]
